[{"OBJECT_NAME":"SENTINEL-2C","OBJECT_ID":"2024-157A","EPOCH":"2026-03-09T19:14:47.154624","MEAN_MOTION":14.30814287,"ECCENTRICITY":7.601e-5,"INCLINATION":98.5688,"RA_OF_ASC_NODE":145.0121,"ARG_OF_PERICENTER":103.4918,"MEAN_ANOMALY":256.635,"EPHEMERIS_TYPE":0,"CLASSIFICATION_TYPE":"U","NORAD_CAT_ID":60989,"ELEMENT_SET_NO":999,"REV_AT_EPOCH":7877,"BSTAR":7.7072514e-5,"MEAN_MOTION_DOT":1.58e-6,"MEAN_MOTION_DDOT":0},{"OBJECT_NAME":"FENGYUN 1C DEB","OBJECT_ID":"1999-025BTK","EPOCH":"2026-03-09T22:04:21.761184","MEAN_MOTION":14.23045071,"ECCENTRICITY":0.00355158,"INCLINATION":98.5955,"RA_OF_ASC_NODE":52.5934,"ARG_OF_PERICENTER":303.4244,"MEAN_ANOMALY":56.354,"EPHEMERIS_TYPE":0,"CLASSIFICATION_TYPE":"U","NORAD_CAT_ID":31423,"ELEMENT_SET_NO":999,"REV_AT_EPOCH":98208,"BSTAR":0.00018437407,"MEAN_MOTION_DOT":3.75e-6,"MEAN_MOTION_DDOT":0}]
